{"type":"FeatureCollection","features":[{"type":"Feature","properties":{"id":"amea-ygeias-aspasias-2","category":"amea_shared","street":"Υγείας","cross":"Ασπασίας","address":"ΥΓΕΙΑΣ (διαστ. με Ασπασίας)","nSpots":1,"parts":3},"geometry":{"type":"Point","coordinates":[23.7871039,37.9954292]}},{"type":"Feature","properties":{"id":"amea-ygeias-aspasias","category":"amea_shared","street":"Υγείας","cross":"Ασπασίας","address":null,"nSpots":2,"parts":6},"geometry":{"type":"Point","coordinates":[23.7863786,37.9960075]}},{"type":"Feature","properties":{"id":"amea-ygeias-mesogeion","category":"amea_shared","street":"Υγείας","cross":"Μεσογείων","address":null,"nSpots":2,"parts":6},"geometry":{"type":"Point","coordinates":[23.7853432,37.9970473]}},{"type":"Feature","properties":{"id":"amea-kyprou-tsigante","category":"amea_shared","street":"Κύπρου","cross":"Τσιγάντε","address":"ΚΥΠΡΟΥ (διαστ. με Τσιγάντε)","nSpots":2,"parts":6},"geometry":{"type":"Point","coordinates":[23.7864625,37.9972883]}},{"type":"Feature","properties":{"id":"amea-kyprou-mesogeion","category":"amea_shared","street":"Κύπρου","cross":"Μεσογείων","address":"ΚΥΠΡΟΥ (διαστ. με Παρ. Μεσογείων)","nSpots":3,"parts":6},"geometry":{"type":"Point","coordinates":[23.7848408,37.9985961]}},{"type":"Feature","properties":{"id":"amea-kyprou-ionias","category":"amea_shared","street":"Κύπρου","cross":"Ιωνίας","address":null,"nSpots":1,"parts":4},"geometry":{"type":"Point","coordinates":[23.7903325,37.9933427]}},{"type":"Feature","properties":{"id":"amea-kyprou-aspasias","category":"amea_shared","street":"Κύπρου","cross":"Ασπασίας","address":"ΚΥΠΡΟΥ (διαστ. με Ασπασίας)","nSpots":2,"parts":6},"geometry":{"type":"Point","coordinates":[23.7880588,37.9957757]}},{"type":"Feature","properties":{"id":"amea-voutsina-sarantaporou","category":"amea_shared","street":"Βουτσινά","cross":"Σαρανταπόρου","address":"ΒΟΥΤΣΙΝΑ (πλ. Δημοκρατίας)","nSpots":1,"parts":5},"geometry":{"type":"Point","coordinates":[23.7925373,38.0006747]}},{"type":"Feature","properties":{"id":"amea-mesogeion-sarantaporou","category":"amea_shared","street":"Μεσογείων","cross":"Σαρανταπόρου","address":"ΠΑΡ. ΜΕΣΟΓΕΙΩΝ (μεταξύ Σαρανταπόρου και Υμηττού)","nSpots":2,"parts":5},"geometry":{"type":"Point","coordinates":[23.7909295,38.0020001]}},{"type":"Feature","properties":{"id":"amea-mesogeion-perikleous","category":"amea_shared","street":"Μεσογείων","cross":"Περικλέους","address":"ΠΑΡ. ΜΕΣΟΓΕΙΩΝ (μεταξύ Λ. Περικλέους και Βεντούρη)","nSpots":2,"parts":5},"geometry":{"type":"Point","coordinates":[23.7934303,38.0036111]}},{"type":"Feature","properties":{"id":"amea-aspasias-faneromenis","category":"amea_shared","street":"Ασπασίας","cross":"Φανερωμένης","address":null,"nSpots":1,"parts":5},"geometry":{"type":"Point","coordinates":[23.7968721,38.0033508]}},{"type":"Feature","properties":{"id":"amea-mesogeion-ventouri","category":"amea_shared","street":"Μεσογείων","cross":"Βεντούρη","address":"ΠΑΡ. ΜΕΣΟΓΕΙΩΝ (μεταξύ Βεντούρη και Φανερωμένης)","nSpots":4,"parts":7},"geometry":{"type":"Point","coordinates":[23.7946335,38.0045252]}},{"type":"Feature","properties":{"id":"amea-mesogeion-faneromenis","category":"amea_shared","street":"Μεσογείων","cross":"Φανερωμένης","address":null,"nSpots":3,"parts":6},"geometry":{"type":"Point","coordinates":[23.7951249,38.0048958]}},{"type":"Feature","properties":{"id":"amea-pythagora-mesogeion","category":"amea_shared","street":"Πυθαγόρα","cross":"Μεσογείων","address":"ΠΥΘΑΓΟΡΑ 2 (Μετροπόλιταν)","nSpots":1,"parts":3},"geometry":{"type":"Point","coordinates":[23.7988115,38.0060515]}},{"type":"Feature","properties":{"id":"amea-mesogeion-aristotelous","category":"amea_shared","street":"Μεσογείων","cross":"Αριστοτέλους","address":"ΠΑΡ. ΜΕΣΟΓΕΙΩΝ (μεταξύ 17ης Νοεμβρίου και Αριστοτέλους)","nSpots":2,"parts":3},"geometry":{"type":"Point","coordinates":[23.8032527,38.0077753]}},{"type":"Feature","properties":{"id":"amea-ix-elevtheriou-venizelou-xanthippou","category":"amea_dedicated","street":"Ελευθερίου Βενιζέλου","cross":"Ξανθίππου","address":"ΕΛ. ΒΕΝΙΖΕΛΟΥ 36-38","nSpots":1,"parts":4},"geometry":{"type":"Point","coordinates":[23.7918666,37.9984367]}},{"type":"Feature","properties":{"id":"amea-ix-xanthippou-aspasias","category":"amea_dedicated","street":"Ξανθίππου","cross":"Ασπασίας","address":"ΞΑΝΘΙΠΠΟΥ 38","nSpots":1,"parts":3},"geometry":{"type":"Point","coordinates":[23.7911394,37.998487]}},{"type":"Feature","properties":{"id":"amea-ix-aspasias-xanthippou","category":"amea_dedicated","street":"Ασπασίας","cross":"Ξανθίππου","address":"ΑΣΠΑΣΙΑΣ 47","nSpots":1,"parts":4},"geometry":{"type":"Point","coordinates":[23.7912996,37.9988958]}},{"type":"Feature","properties":{"id":"amea-ix-sarantaporou-aristofanous","category":"amea_dedicated","street":"Σαρανταπόρου","cross":"Αριστοφάνους","address":"ΣΑΡΑΝΤΑΠΟΡΟΥ 3","nSpots":1,"parts":3},"geometry":{"type":"Point","coordinates":[23.7908679,38.0012508]}},{"type":"Feature","properties":{"id":"amea-ix-voutsina-ymittou","category":"amea_dedicated","street":"Βουτσινά","cross":"Υμηττού","address":"ΒΟΥΤΣΙΝΑ 68","nSpots":2,"parts":6},"geometry":{"type":"Point","coordinates":[23.7933133,38.0012654]}},{"type":"Feature","properties":{"id":"amea-ix-agamemnonos-ventouri","category":"amea_dedicated","street":"Αγαμέμνονος","cross":"Βεντούρη","address":"ΑΓΑΜΕΜΝΟΝΟΣ 1","nSpots":1,"parts":4},"geometry":{"type":"Point","coordinates":[23.7948823,38.0036292]}},{"type":"Feature","properties":{"id":"amea-ix-pythagora-psaron","category":"amea_dedicated","street":"Πυθαγόρα","cross":"Ψαρών","address":null,"nSpots":1,"parts":4},"geometry":{"type":"Point","coordinates":[23.8002947,38.0031945]}},{"type":"Feature","properties":{"id":"amea-ix-pythagora-chiou","category":"amea_dedicated","street":"Πυθαγόρα","cross":"Χίου","address":null,"nSpots":2,"parts":8},"geometry":{"type":"Point","coordinates":[23.7993807,38.0050853]}},{"type":"Feature","properties":{"id":"amea-ix-nik-vitali-chiou","category":"amea_dedicated","street":"Νικ. Βιτάλη","cross":"Χίου","address":null,"nSpots":1,"parts":4},"geometry":{"type":"Point","coordinates":[23.8006531,38.0060492]}},{"type":"Feature","properties":{"id":"amea-ix-chiou-doridos","category":"amea_dedicated","street":"Χίου","cross":"Δωρίδος","address":null,"nSpots":1,"parts":9},"geometry":{"type":"Point","coordinates":[23.8018657,38.0061761]}},{"type":"Feature","properties":{"id":"amea-ix-psaron-doridos","category":"amea_dedicated","street":"Ψαρών","cross":"Δωρίδος","address":"ΨΑΡΩΝ 24","nSpots":1,"parts":4},"geometry":{"type":"Point","coordinates":[23.802891,38.0035786]}},{"type":"Feature","properties":{"id":"amea-ix-doridos-psaron","category":"amea_dedicated","street":"Δωρίδος","cross":"Ψαρών","address":"ΔΩΡΙΔΟΣ 11","nSpots":1,"parts":4},"geometry":{"type":"Point","coordinates":[23.8023994,38.0042747]}},{"type":"Feature","properties":{"id":"amea-ix-panagi-tsaldari-menippou","category":"amea_dedicated","street":"Παναγή Τσαλδάρη","cross":"Μενίππου","address":"ΠΑΝ. ΤΣΑΛΔΑΡΗ 15","nSpots":1,"parts":4},"geometry":{"type":"Point","coordinates":[23.8043078,38.005166]}},{"type":"Feature","properties":{"id":"amea-ix-lochagou-dedousi-menippou","category":"amea_dedicated","street":"Λοχαγού Δεδούση","cross":"Μενίππου","address":"ΛΟΧ. ΔΕΔΟΥΣΗ 38","nSpots":1,"parts":3},"geometry":{"type":"Point","coordinates":[23.8060174,38.0061392]}},{"type":"Feature","properties":{"id":"amea-ix-chiou-panagi-tsaldari","category":"amea_dedicated","street":"Χίου","cross":"Παναγή Τσαλδάρη","address":null,"nSpots":1,"parts":4},"geometry":{"type":"Point","coordinates":[23.8030826,38.0065168]}},{"type":"Feature","properties":{"id":"ev-voutsina-ymittou","category":"ev","street":"Βουτσινά","cross":"Υμηττού","address":null,"nSpots":2,"parts":4},"geometry":{"type":"Point","coordinates":[23.7932632,38.0012326]}},{"type":"Feature","properties":{"id":"ev-mesogeion-ymittou","category":"ev","street":"Μεσογείων","cross":"Υμηττού","address":null,"nSpots":1,"parts":1},"geometry":{"type":"Point","coordinates":[23.7916437,38.0023165]}},{"type":"Feature","properties":{"id":"ev-mesogeion-aetideon","category":"ev","street":"Μεσογείων","cross":"Αετιδέων","address":null,"nSpots":1,"parts":6},"geometry":{"type":"Point","coordinates":[23.7927088,38.0030402]}},{"type":"Feature","properties":{"id":"ev-mesogeion-perikleous","category":"ev","street":"Μεσογείων","cross":"Περικλέους","address":null,"nSpots":1,"parts":4},"geometry":{"type":"Point","coordinates":[23.7935273,38.0036912]}},{"type":"Feature","properties":{"id":"ev-aspasias-faneromenis","category":"ev","street":"Ασπασίας","cross":"Φανερωμένης","address":null,"nSpots":2,"parts":6},"geometry":{"type":"Point","coordinates":[23.796908,38.0032695]}},{"type":"Feature","properties":{"id":"ev-mesogeion-faneromenis","category":"ev","street":"Μεσογείων","cross":"Φανερωμένης","address":null,"nSpots":1,"parts":8},"geometry":{"type":"Point","coordinates":[23.7950145,38.0048184]}},{"type":"Feature","properties":{"id":"special-elevtheriou-venizelou-xanthippou","category":"special","street":"Ελευθερίου Βενιζέλου","cross":"Ξανθίππου","address":null,"nSpots":1,"parts":3},"geometry":{"type":"Point","coordinates":[23.7914175,37.99802]}},{"type":"Feature","properties":{"id":"special-aetideon-voutsina","category":"special","street":"Αετιδέων","cross":"Βουτσινά","address":null,"nSpots":2,"parts":3},"geometry":{"type":"Point","coordinates":[23.7940372,38.0018557]}},{"type":"Feature","properties":{"id":"special-mesogeion-pythagora","category":"special","street":"Μεσογείων","cross":"Πυθαγόρα","address":null,"nSpots":1,"parts":4},"geometry":{"type":"Point","coordinates":[23.7984227,38.0063001]}}]}
