{"type":"FeatureCollection","features":[{"type":"Feature","properties":{"id":"zone-a","letter":"Α","name":"Ζώνη Α","strips":1530},"geometry":{"type":"Polygon","coordinates":[[[23.786651,38.000425],[23.786875,38.0005569],[23.7876481,38.000974],[23.790288,38.001869],[23.7908639,38.002071],[23.791179,38.002204],[23.791449,38.0023299],[23.791689,38.002455],[23.791923,38.002606],[23.792467,38.003011],[23.793179,38.003564],[23.797035,38.000368],[23.796339,37.999822],[23.795339,37.999081],[23.79451,37.998447],[23.793867,37.997936],[23.7931569,37.99731],[23.7923873,37.9965673],[23.793166,37.996062],[23.793922,37.995555],[23.793831,37.995475],[23.793705,37.995412],[23.793548,37.995365],[23.793159,37.99529],[23.793023,37.995245],[23.791048,37.996561],[23.7916068,37.99709],[23.7908213,37.9976007],[23.790267,37.997081],[23.789671,37.9974758],[23.789225,37.997039],[23.788645,37.997433],[23.7896607,37.9983801],[23.789161,37.998713],[23.788878,37.99889],[23.78812,37.9994],[23.786651,38.000425]]]}},{"type":"Feature","properties":{"id":"zone-b","letter":"Β","name":"Ζώνη Β","strips":1573},"geometry":{"type":"Polygon","coordinates":[[[23.793234,38.003606],[23.794025,38.004191],[23.795427,38.005252],[23.795785,38.005465],[23.796053,38.005585],[23.796431,38.005724],[23.797916,38.006235],[23.799026,38.00663],[23.799137,38.006663],[23.799524,38.006744],[23.800276,38.006879],[23.800906,38.007002],[23.801204,38.007095],[23.801872,38.0073359],[23.802154,38.006742],[23.802314,38.0063819],[23.80277,38.005451],[23.8020301,38.0051878],[23.8027408,38.0036424],[23.8035179,38.003899],[23.8037379,38.003453],[23.801539,38.002711],[23.8004561,38.0023913],[23.8005294,38.0023513],[23.7998972,38.0021545],[23.7997904,38.0021289],[23.7996235,38.0021225],[23.7995139,38.0021398],[23.7993629,38.0021964],[23.7992767,38.0022525],[23.7991772,38.0023587],[23.7989025,38.002875],[23.7971383,38.0015542],[23.797853,38.000966],[23.797035,38.000368],[23.794586,38.002397],[23.7946386,38.0024333],[23.793234,38.003606]]]}},{"type":"Feature","properties":{"id":"zone-c","letter":"Γ","name":"Ζώνη Γ","strips":523},"geometry":{"type":"Polygon","coordinates":[[[23.801872,38.0073359],[23.8030199,38.007734],[23.8039835,38.0080918],[23.803913,38.008192],[23.804621,38.0084799],[23.804925,38.008615],[23.805304,38.008797],[23.8078179,38.004897],[23.808072,38.004491],[23.807432,38.004304],[23.806597,38.004037],[23.805921,38.0037879],[23.8043499,38.003239],[23.803908,38.0031],[23.8035179,38.0038988],[23.802741,38.003642],[23.80203,38.005188],[23.8027698,38.0054513],[23.802314,38.006382],[23.802154,38.006742],[23.801872,38.0073359]]]}},{"type":"Feature","properties":{"id":"zone-d","letter":"Δ","name":"Ζώνη Δ","strips":937},"geometry":{"type":"Polygon","coordinates":[[[23.7833673,37.9981917],[23.784344,37.999],[23.7844482,37.9989342],[23.784786,37.99922],[23.785226,37.999534],[23.786069,38.000087],[23.786651,38.000425],[23.78812,37.9994],[23.788878,37.99889],[23.789161,37.998713],[23.789661,37.99838],[23.7886453,37.9974331],[23.7892245,37.9970393],[23.789671,37.997476],[23.7902671,37.9970812],[23.790821,37.997601],[23.791607,37.99709],[23.7910484,37.9965608],[23.793023,37.995245],[23.7929489,37.995204],[23.792708,37.995025],[23.792457,37.994818],[23.792343,37.994712],[23.792231,37.99457],[23.791251,37.993233],[23.7911723,37.9931672],[23.791217,37.993122],[23.791246,37.993075],[23.791262,37.993029],[23.791269,37.992974],[23.791263,37.992922],[23.7912449,37.992873],[23.791176,37.992785],[23.791127,37.992751],[23.791067,37.992722],[23.7909963,37.9927021],[23.791081,37.9926819],[23.7911689,37.992645],[23.791251,37.992596],[23.79208,37.9916499],[23.791859,37.991511],[23.791892,37.991678],[23.791891,37.99176],[23.791877,37.991792],[23.7912451,37.9925169],[23.791203,37.992559],[23.791142,37.992601],[23.791069,37.992634],[23.790989,37.992654],[23.790806,37.992674],[23.7907189,37.992696],[23.790632,37.992737],[23.790567,37.992794],[23.7905266,37.9928563],[23.7903834,37.9928468],[23.790217,37.9928732],[23.7901147,37.9929119],[23.7899844,37.992998],[23.7879138,37.9952273],[23.7877728,37.9951483],[23.7876991,37.9950729],[23.7875297,37.9949317],[23.7873872,37.9948626],[23.7872807,37.9948362],[23.7871138,37.9948284],[23.7869514,37.9948593],[23.7868524,37.9949002],[23.7867099,37.9949944],[23.7866722,37.9950284],[23.7866105,37.9951045],[23.786561,37.9952179],[23.7863598,37.9954055],[23.7862212,37.9955039],[23.7860441,37.9956622],[23.7859305,37.9957279],[23.7858649,37.9957846],[23.7857995,37.9958571],[23.7857591,37.9959271],[23.7856716,37.996026],[23.7855606,37.996127],[23.7854991,37.9961962],[23.7851789,37.9964884],[23.7850613,37.9965692],[23.7849575,37.9966669],[23.7849249,37.9967082],[23.7834848,37.9980108],[23.7834214,37.9980831],[23.7833673,37.9981917]],[[23.7877331,37.9989269],[23.787592,37.9990344],[23.7874962,37.999087],[23.787328,37.9992],[23.7872503,37.9992632],[23.7871408,37.999323],[23.7869825,37.9994273],[23.7869033,37.9994909],[23.786814,37.9995377],[23.7866431,37.9996543],[23.7865449,37.9995888],[23.7863545,37.9994922],[23.7861807,37.9993809],[23.7859529,37.9992594],[23.7858182,37.999174],[23.7856387,37.9990536],[23.7854021,37.9988609],[23.7858094,37.9985205],[23.7861346,37.998262],[23.7860791,37.9983655],[23.7860575,37.9984969],[23.7860705,37.9985848],[23.7861299,37.9987087],[23.7862323,37.9988136],[23.7866724,37.9990887],[23.7867718,37.9991291],[23.7869345,37.9991591],[23.7870462,37.9991576],[23.7872075,37.9991233],[23.7873051,37.9990804],[23.7873902,37.9990232],[23.7875426,37.9988712],[23.7875904,37.9987986],[23.7877331,37.9989269]],[[23.7864409,37.9980087],[23.786575,37.9979032],[23.7866378,37.9979589],[23.7865354,37.997977],[23.7864409,37.9980087]]]}}]}
